CSS (TIANHE)            
1 48274U 21035A   23236.85267895  .00027697  00000+0  32043-3 0  9997
2 48274  41.4727  98.4596 0010338 228.0918 131.9040 15.61167829132569
